[Satellite]
VERSION=1.1
NAME=SL-3 R/B
NICKNAME=SL-3 R/B
TLE1=1 14208U 83075B   15055.08108985  .00002229  00000-0  14462-3 0  9998
TLE2=2 14208  97.3975  87.8235 0042382 156.9187 203.3958 15.08337806720152
